PAKSAT-1R               
1 37779U 11042A   23267.08729764  .00000148  00000+0  00000+0 0  9995
2 37779   0.0135 105.5901 0000716   1.8891 324.5904  1.00268959 44281
CHINASAT 1A (ZX 1A)     
1 37804U 11047A   23267.12056722 -.00000058  00000+0  00000+0 0  9992
2 37804   1.1288  91.2495 0000728 103.7104 105.7869  1.00042100 44065
SES-2                   
1 37809U 11049A   23267.12133382 -.00000202  00000+0  00000+0 0  9998
2 37809   0.0415 295.7682 0002552 238.9658 144.6684  1.00272032 43998
ARABSAT-5C              
1 37810U 11049B   23266.26356997  .00000121  00000+0  00000+0 0  9992
2 37810   0.0546  11.5560 0007193 177.1224 288.0725  1.00270099 44051
EUTELSAT 7 WEST A       
1 37816U 11051A   23266.40146916 -.00000063  00000+0  00000+0 0  9991
2 37816   0.0730  26.8031 0006375 162.3253 310.0887  1.00271666 43890
QUETZSAT 1              
1 37826U 11054A   23267.11716188 -.00000247  00000+0  00000+0 0  9992
2 37826   0.0152 138.1558 0002312  50.6297 139.1056  1.00268905 44109
INTELSAT 18 (IS-18)     
1 37834U 11056A   23267.15523779  .00000047  00000+0  00000+0 0  9996
2 37834   0.0032  80.9077 0002044 105.2280  52.4770  1.00269037 43843
EUTELSAT 16A            
1 37836U 11057A   23266.26278677  .00000102  00000+0  00000+0 0  9996
2 37836   0.0691 358.5488 0005144 183.1141 290.8018  1.00270257 35964
VIASAT-1                
1 37843U 11059A   23267.08174279 -.00000029  00000+0  00000+0 0  9999
2 37843   0.0233 177.1759 0002314 356.7312 103.0626  1.00271009 44274
ASIASAT 7               
1 37933U 11069A   23266.57370527 -.00000337  00000+0  00000+0 0  9999
2 37933   0.0396 113.8774 0001738   0.7080 199.6323  1.00270186 34858
BEIDOU-2 IGSO-5         
1 37948U 11073A   23266.72138608 -.00000111  00000+0  00000+0 0  9999
2 37948  49.5012 283.7398 0095075 220.9133 213.0722  1.00267757 43403
LUCH-5A                 
1 37951U 11074B   23266.42641458 -.00000049  00000+0  00000+0 0  9993
2 37951   6.1895  89.3628 0004457  76.9877 156.1661  1.00269584 43048
NIGCOMSAT 1R            
1 38014U 11077A   23266.28660421  .00000142  00000+0  00000+0 0  9995
2 38014   0.0419  32.4634 0002684 274.2198 200.8711  1.00273129 42951
FENGYUN 2F              
1 38049U 12002A   23266.49688931 -.00000359  00000+0  00000+0 0  9992
2 38049   4.9256  75.7333 0002017  76.2902 141.0432  1.00269797 42873
WGS F4 (USA 233)        
1 38070U 12003A   23267.03799434 -.00000220  00000+0  00000+0 0  9996
2 38070   0.0141 165.8007 0000299  25.8002 273.1035  1.00269591 42729
SES-4                   
1 38087U 12007A   23267.11503337 -.00000173  00000+0  00000+0 0  9999
2 38087   0.0166 100.8160 0002446  84.9494 196.3506  1.00272742 42495
BEIDOU-2 G5             
1 38091U 12008A   23266.48627255  .00000055  00000+0  00000+0 0  9998
2 38091   1.7532  68.6925 0004455 172.7023 354.5517  1.00266892 42478
