[{"OBJECT_NAME":"PAKSAT-1R","OBJECT_ID":"2011-042A","EPOCH":"2023-09-24T02:05:42.516096","MEAN_MOTION":1.00268959,"ECCENTRICITY":7.16e-5,"INCLINATION":0.0135,"RA_OF_ASC_NODE":105.5901,"ARG_OF_PERICENTER":1.8891,"MEAN_ANOMALY":324.5904,"EPHEMERIS_TYPE":0,"CLASSIFICATION_TYPE":"U","NORAD_CAT_ID":37779,"ELEMENT_SET_NO":999,"REV_AT_EPOCH":4428,"BSTAR":0,"MEAN_MOTION_DOT":1.48e-6,"MEAN_MOTION_DDOT":0},{"OBJECT_NAME":"CHINASAT 1A (ZX 1A)","OBJECT_ID":"2011-047A","EPOCH":"2023-09-24T02:53:37.007808","MEAN_MOTION":1.000421,"ECCENTRICITY":7.28e-5,"INCLINATION":1.1288,"RA_OF_ASC_NODE":91.2495,"ARG_OF_PERICENTER":103.7104,"MEAN_ANOMALY":105.7869,"EPHEMERIS_TYPE":0,"CLASSIFICATION_TYPE":"U","NORAD_CAT_ID":37804,"ELEMENT_SET_NO":999,"REV_AT_EPOCH":4406,"BSTAR":0,"MEAN_MOTION_DOT":-5.8e-7,"MEAN_MOTION_DDOT":0},{"OBJECT_NAME":"SES-2","OBJECT_ID":"2011-049A","EPOCH":"2023-09-24T02:54:43.242048","MEAN_MOTION":1.00272032,"ECCENTRICITY":0.0002552,"INCLINATION":0.0415,"RA_OF_ASC_NODE":295.7682,"ARG_OF_PERICENTER":238.9658,"MEAN_ANOMALY":144.6684,"EPHEMERIS_TYPE":0,"CLASSIFICATION_TYPE":"U","NORAD_CAT_ID":37809,"ELEMENT_SET_NO":999,"REV_AT_EPOCH":4399,"BSTAR":0,"MEAN_MOTION_DOT":-2.02e-6,"MEAN_MOTION_DDOT":0},{"OBJECT_NAME":"ARABSAT-5C","OBJECT_ID":"2011-049B","EPOCH":"2023-09-23T06:19:32.445408","MEAN_MOTION":1.00270099,"ECCENTRICITY":0.0007193,"INCLINATION":0.0546,"RA_OF_ASC_NODE":11.556,"ARG_OF_PERICENTER":177.1224,"MEAN_ANOMALY":288.0725,"EPHEMERIS_TYPE":0,"CLASSIFICATION_TYPE":"U","NORAD_CAT_ID":37810,"ELEMENT_SET_NO":999,"REV_AT_EPOCH":4405,"BSTAR":0,"MEAN_MOTION_DOT":1.21e-6,"MEAN_MOTION_DDOT":0},{"OBJECT_NAME":"EUTELSAT 7 WEST A","OBJECT_ID":"2011-051A","EPOCH":"2023-09-23T09:38:06.935424","MEAN_MOTION":1.00271666,"ECCENTRICITY":0.0006375,"INCLINATION":0.073,"RA_OF_ASC_NODE":26.8031,"ARG_OF_PERICENTER":162.3253,"MEAN_ANOMALY":310.0887,"EPHEMERIS_TYPE":0,"CLASSIFICATION_TYPE":"U","NORAD_CAT_ID":37816,"ELEMENT_SET_NO":999,"REV_AT_EPOCH":4389,"BSTAR":0,"MEAN_MOTION_DOT":-6.3e-7,"MEAN_MOTION_DDOT":0},{"OBJECT_NAME":"QUETZSAT 1","OBJECT_ID":"2011-054A","EPOCH":"2023-09-24T02:48:42.786432","MEAN_MOTION":1.00268905,"ECCENTRICITY":0.0002312,"INCLINATION":0.0152,"RA_OF_ASC_NODE":138.1558,"ARG_OF_PERICENTER":50.6297,"MEAN_ANOMALY":139.1056,"EPHEMERIS_TYPE":0,"CLASSIFICATION_TYPE":"U","NORAD_CAT_ID":37826,"ELEMENT_SET_NO":999,"REV_AT_EPOCH":4410,"BSTAR":0,"MEAN_MOTION_DOT":-2.47e-6,"MEAN_MOTION_DDOT":0},{"OBJECT_NAME":"INTELSAT 18 (IS-18)","OBJECT_ID":"2011-056A","EPOCH":"2023-09-24T03:43:32.545056","MEAN_MOTION":1.00269037,"ECCENTRICITY":0.0002044,"INCLINATION":0.0032,"RA_OF_ASC_NODE":80.9077,"ARG_OF_PERICENTER":105.228,"MEAN_ANOMALY":52.477,"EPHEMERIS_TYPE":0,"CLASSIFICATION_TYPE":"U","NORAD_CAT_ID":37834,"ELEMENT_SET_NO":999,"REV_AT_EPOCH":4384,"BSTAR":0,"MEAN_MOTION_DOT":4.7e-7,"MEAN_MOTION_DDOT":0},{"OBJECT_NAME":"EUTELSAT 16A","OBJECT_ID":"2011-057A","EPOCH":"2023-09-23T06:18:24.776928","MEAN_MOTION":1.00270257,"ECCENTRICITY":0.0005144,"INCLINATION":0.0691,"RA_OF_ASC_NODE":358.5488,"ARG_OF_PERICENTER":183.1141,"MEAN_ANOMALY":290.8018,"EPHEMERIS_TYPE":0,"CLASSIFICATION_TYPE":"U","NORAD_CAT_ID":37836,"ELEMENT_SET_NO":999,"REV_AT_EPOCH":3596,"BSTAR":0,"MEAN_MOTION_DOT":1.02e-6,"MEAN_MOTION_DDOT":0},{"OBJECT_NAME":"VIASAT-1","OBJECT_ID":"2011-059A","EPOCH":"2023-09-24T01:57:42.577056","MEAN_MOTION":1.00271009,"ECCENTRICITY":0.0002314,"INCLINATION":0.0233,"RA_OF_ASC_NODE":177.1759,"ARG_OF_PERICENTER":356.7312,"MEAN_ANOMALY":103.0626,"EPHEMERIS_TYPE":0,"CLASSIFICATION_TYPE":"U","NORAD_CAT_ID":37843,"ELEMENT_SET_NO":999,"REV_AT_EPOCH":4427,"BSTAR":0,"MEAN_MOTION_DOT":-2.9e-7,"MEAN_MOTION_DDOT":0},{"OBJECT_NAME":"ASIASAT 7","OBJECT_ID":"2011-069A","EPOCH":"2023-09-23T13:46:08.135328","MEAN_MOTION":1.00270186,"ECCENTRICITY":0.0001738,"INCLINATION":0.0396,"RA_OF_ASC_NODE":113.8774,"ARG_OF_PERICENTER":0.708,"MEAN_ANOMALY":199.6323,"EPHEMERIS_TYPE":0,"CLASSIFICATION_TYPE":"U","NORAD_CAT_ID":37933,"ELEMENT_SET_NO":999,"REV_AT_EPOCH":3485,"BSTAR":0,"MEAN_MOTION_DOT":-3.37e-6,"MEAN_MOTION_DDOT":0},{"OBJECT_NAME":"BEIDOU-2 IGSO-5","OBJECT_ID":"2011-073A","EPOCH":"2023-09-23T17:18:47.757312","MEAN_MOTION":1.00267757,"ECCENTRICITY":0.0095075,"INCLINATION":49.5012,"RA_OF_ASC_NODE":283.7398,"ARG_OF_PERICENTER":220.9133,"MEAN_ANOMALY":213.0722,"EPHEMERIS_TYPE":0,"CLASSIFICATION_TYPE":"U","NORAD_CAT_ID":37948,"ELEMENT_SET_NO":999,"REV_AT_EPOCH":4340,"BSTAR":0,"MEAN_MOTION_DOT":-1.11e-6,"MEAN_MOTION_DDOT":0},{"OBJECT_NAME":"LUCH-5A","OBJECT_ID":"2011-074B","EPOCH":"2023-09-23T10:14:02.219712","MEAN_MOTION":1.00269584,"ECCENTRICITY":0.0004457,"INCLINATION":6.1895,"RA_OF_ASC_NODE":89.3628,"ARG_OF_PERICENTER":76.9877,"MEAN_ANOMALY":156.1661,"EPHEMERIS_TYPE":0,"CLASSIFICATION_TYPE":"U","NORAD_CAT_ID":37951,"ELEMENT_SET_NO":999,"REV_AT_EPOCH":4304,"BSTAR":0,"MEAN_MOTION_DOT":-4.9e-7,"MEAN_MOTION_DDOT":0},{"OBJECT_NAME":"NIGCOMSAT 1R","OBJECT_ID":"2011-077A","EPOCH":"2023-09-23T06:52:42.603744","MEAN_MOTION":1.00273129,"ECCENTRICITY":0.0002684,"INCLINATION":0.0419,"RA_OF_ASC_NODE":32.4634,"ARG_OF_PERICENTER":274.2198,"MEAN_ANOMALY":200.8711,"EPHEMERIS_TYPE":0,"CLASSIFICATION_TYPE":"U","NORAD_CAT_ID":38014,"ELEMENT_SET_NO":999,"REV_AT_EPOCH":4295,"BSTAR":0,"MEAN_MOTION_DOT":1.42e-6,"MEAN_MOTION_DDOT":0},{"OBJECT_NAME":"FENGYUN 2F","OBJECT_ID":"2012-002A","EPOCH":"2023-09-23T11:55:31.236384","MEAN_MOTION":1.00269797,"ECCENTRICITY":0.0002017,"INCLINATION":4.9256,"RA_OF_ASC_NODE":75.7333,"ARG_OF_PERICENTER":76.2902,"MEAN_ANOMALY":141.0432,"EPHEMERIS_TYPE":0,"CLASSIFICATION_TYPE":"U","NORAD_CAT_ID":38049,"ELEMENT_SET_NO":999,"REV_AT_EPOCH":4287,"BSTAR":0,"MEAN_MOTION_DOT":-3.59e-6,"MEAN_MOTION_DDOT":0},{"OBJECT_NAME":"WGS F4 (USA 233)","OBJECT_ID":"2012-003A","EPOCH":"2023-09-24T00:54:42.710976","MEAN_MOTION":1.00269591,"ECCENTRICITY":2.99e-5,"INCLINATION":0.0141,"RA_OF_ASC_NODE":165.8007,"ARG_OF_PERICENTER":25.8002,"MEAN_ANOMALY":273.1035,"EPHEMERIS_TYPE":0,"CLASSIFICATION_TYPE":"U","NORAD_CAT_ID":38070,"ELEMENT_SET_NO":999,"REV_AT_EPOCH":4272,"BSTAR":0,"MEAN_MOTION_DOT":-2.2e-6,"MEAN_MOTION_DDOT":0},{"OBJECT_NAME":"SES-4","OBJECT_ID":"2012-007A","EPOCH":"2023-09-24T02:45:38.883168","MEAN_MOTION":1.00272742,"ECCENTRICITY":0.0002446,"INCLINATION":0.0166,"RA_OF_ASC_NODE":100.816,"ARG_OF_PERICENTER":84.9494,"MEAN_ANOMALY":196.3506,"EPHEMERIS_TYPE":0,"CLASSIFICATION_TYPE":"U","NORAD_CAT_ID":38087,"ELEMENT_SET_NO":999,"REV_AT_EPOCH":4249,"BSTAR":0,"MEAN_MOTION_DOT":-1.73e-6,"MEAN_MOTION_DDOT":0},{"OBJECT_NAME":"BEIDOU-2 G5","OBJECT_ID":"2012-008A","EPOCH":"2023-09-23T11:40:13.948320","MEAN_MOTION":1.00266892,"ECCENTRICITY":0.0004455,"INCLINATION":1.7532,"RA_OF_ASC_NODE":68.6925,"ARG_OF_PERICENTER":172.7023,"MEAN_ANOMALY":354.5517,"EPHEMERIS_TYPE":0,"CLASSIFICATION_TYPE":"U","NORAD_CAT_ID":38091,"ELEMENT_SET_NO":999,"REV_AT_EPOCH":4247,"BSTAR":0,"MEAN_MOTION_DOT":5.5e-7,"MEAN_MOTION_DDOT":0}]